{
  "norad_id": 57984,
  "name": "STARLINK-30516",
  "history": [
    {
      "epoch": "2026-03-28T21:47:52.831104",
      "apogee_km": 486.45782231925114,
      "perigee_km": 484.5895338826722,
      "latitude_deg": 42.976278473425246,
      "longitude_deg": 65.59203455992974,
      "semi_major_axis_km": 6863.660678100961,
      "eccentricity": 0.0001361,
      "inclination_deg": 42.9992,
      "raan_deg": 245.4626,
      "arg_perigee_deg": 277.4788,
      "mean_anomaly_deg": 82.5909,
      "mean_motion_rev_day": 15.26753958
    },
    {
      "epoch": "2026-03-28T21:47:52.831968",
      "apogee_km": 486.4580282290717,
      "perigee_km": 484.5893279728516,
      "latitude_deg": 42.97627869805273,
      "longitude_deg": 65.59203551989049,
      "semi_major_axis_km": 6863.660678100961,
      "eccentricity": 0.00013613,
      "inclination_deg": 42.9992,
      "raan_deg": 245.4626,
      "arg_perigee_deg": 277.4788,
      "mean_anomaly_deg": 82.5909,
      "mean_motion_rev_day": 15.26753958
    }
  ]
}